NORAD_CAT_ID,OBJECT_NAME,OBJECT_TYPE,EPOCH,MEAN_MOTION,ECCENTRICITY,INCLINATION,RA_OF_ASC_NODE,ARG_OF_PERICENTER,MEAN_ANOMALY,BSTAR,MEAN_MOTION_DOT,MEAN_MOTION_DDOT,TLE_LINE0,TLE_LINE1,TLE_LINE2,SEMIMAJOR_AXIS,PERIOD,APOGEE,PERIGEE,DECAYED
54209.0,STARLINK-5259,PAYLOAD,2022-11-14 14:00:01,15.73173354,0.0002568,53.2159,57.0591,17.372,45.0162,0.00040406,0.00056409,0.0,0 STARLINK-5259,1 54209U 22141BE  22318.58334491  .00056409  00000-0  40406-3 0  9994,2 54209  53.2159  57.0591 0002568  17.3720  45.0162 15.73173354  3027,6727.971,91.535,351.564,348.108,0.0
54209.0,STARLINK-5259,PAYLOAD,2022-11-14 22:00:00,15.73246847,0.0002574,53.216,55.4084,14.3839,136.9125,-0.00058993,-0.00082786,0.0,0 STARLINK-5259,1 54209U 22141BE  22318.91667824 -.00082786  00000-0 -58993-3 0  9999,2 54209  53.2160  55.4084 0002574  14.3839 136.9125 15.73246847  1309,6727.762,91.53,351.358,347.895,0.0
54209.0,STARLINK-5259,PAYLOAD,2022-11-15 06:00:00,15.73210511,0.0002508,53.2162,53.7577,18.9483,221.3082,-0.00010651,-0.00015551,0.0,0 STARLINK-5259,1 54209U 22141BE  22319.25001157 -.00015551  00000-0 -10651-3 0  9993,2 54209  53.2162  53.7577 0002508  18.9483 221.3082 15.73210511  3123,6727.865,91.533,351.418,348.043,0.0
54209.0,STARLINK-5259,PAYLOAD,2022-11-15 14:00:01,15.73200984,0.0002505,53.2172,52.1086,18.9029,310.3054,4.0012e-06,-6e-07,0.0,0 STARLINK-5259,1 54209U 22141BE  22319.58334491 -.00000060  00000-0  40012-5 0  9993,2 54209  53.2172  52.1086 0002505  18.9029 310.3054 15.73200984  1304,6727.892,91.533,351.4430000000001,348.07199999999995,0.0
54209.0,STARLINK-5259,PAYLOAD,2022-11-15 22:00:00,15.73204548,0.0002226,53.2171,50.4573,14.4895,43.6498,-2.1411e-06,-9.22e-06,0.0,0 STARLINK-5259,1 54209U 22141BE  22319.91667824 -.00000922  00000-0 -21411-5 0  9999,2 54209  53.2171  50.4573 0002226  14.4895  43.6498 15.73204548  1305,6727.882,91.533,351.245,348.25,0.0
54209.0,STARLINK-5259,PAYLOAD,2022-11-16 04:00:00,15.73202742,0.0002129,53.2173,49.2188,15.1987,19.643,1.2337e-05,1.111e-05,0.0,0 STARLINK-5259,1 54209U 22141BE  22320.16667824  .00001111  00000-0  12337-4 0  9993,2 54209  53.2173  49.2188 0002129  15.1987  19.6430 15.73202742  3278,6727.887,91.533,351.185,348.32,0.0
54209.0,STARLINK-5259,PAYLOAD,2022-11-16 14:00:01,15.73204652,0.0002245,53.2173,47.1591,14.8083,221.2645,-4.9677e-06,-1.319e-05,0.0,0 STARLINK-5259,1 54209U 22141BE  22320.58335648 -.00001319  00000-0 -49677-5 0  9995,2 54209  53.2173  47.1591 0002245  14.8083 221.2645 15.73204652  1308,6727.882,91.533,351.25699999999995,348.237,0.0
54209.0,STARLINK-5259,PAYLOAD,2022-11-16 22:00:08,15.73205182,0.0002193,53.2174,45.508,13.7805,311.6207,-1.2833e-05,-2.423e-05,0.0,0 STARLINK-5259,1 54209U 22141BE  22320.91675926 -.00002423  00000-0 -12833-4 0  9998,2 54209  53.2174  45.5080 0002193  13.7805 311.6207 15.73205182  1303,6727.88,91.533,351.221,348.27,0.0
54209.0,STARLINK-5259,PAYLOAD,2022-11-17 04:00:00,15.73190804,0.0002809,53.2163,44.2724,18.6082,283.0945,0.00026119,0.00036183,0.0,0 STARLINK-5259,1 54209U 22141BE  22321.16667824  .00036183  00000-0  26119-3 0  9993,2 54209  53.2163  44.2724 0002809  18.6082 283.0945 15.73190804  3427,6727.920999999999,91.534,351.676,347.897,0.0
54209.0,STARLINK-5259,PAYLOAD,2022-11-17 12:00:00,15.73170209,0.0003034,53.2164,42.6248,17.3296,13.3027,9.649e-05,0.00012925,0.0,0 STARLINK-5259,1 54209U 22141BE  22321.50001157  .00012925  00000-0  96490-4 0  9990,2 54209  53.2164  42.6248 0003034  17.3296  13.3027 15.73170209  3483,6727.98,91.535,351.886,347.80400000000014,0.0
54209.0,STARLINK-5259,PAYLOAD,2022-11-17 14:00:01,15.73152007,0.0003119,53.2165,42.2127,15.9972,126.8633,0.00047373,0.00066265,0.0,0 STARLINK-5259,1 54209U 22141BE  22321.58334491  .00066265  00000-0  47373-3 0  9999,2 54209  53.2165  42.2127 0003119  15.9972 126.8633 15.73152007  1303,6728.031999999997,91.536,351.995,347.7990000000001,0.0
54209.0,STARLINK-5259,PAYLOAD,2022-11-17 22:00:00,15.73243106,0.0002991,53.2162,40.5621,14.9906,216.7603,-0.00049556,-0.00069744,0.0,0 STARLINK-5259,1 54209U 22141BE  22321.91667824 -.00069744  00000-0 -49556-3 0  9997,2 54209  53.2162  40.5621 0002991  14.9906 216.7603 15.73243106  1300,6727.772,91.531,351.65,347.625,0.0
54209.0,STARLINK-5259,PAYLOAD,2022-11-18 06:00:00,15.73184338,0.0002873,53.2164,38.912,14.8067,305.8975,0.00043264,0.00060503,0.0,0 STARLINK-5259,1 54209U 22141BE  22322.25001157  .00060503  00000-0  43264-3 0  9998,2 54209  53.2164  38.9120 0002873  14.8067 305.8975 15.73184338  3601,6727.94,91.534,351.73800000000006,347.872,0.0
54209.0,STARLINK-5259,PAYLOAD,2022-11-18 14:00:01,15.73210729,0.0003161,53.2165,37.2645,13.2614,36.3628,0.0002837,0.00039407,0.0,0 STARLINK-5259,1 54209U 22141BE  22322.58334491  .00039407  00000-0  28370-3 0  9994,2 54209  53.2165  37.2645 0003161  13.2614  36.3628 15.73210729  1308,6727.865,91.533,351.856,347.603,0.0
54209.0,STARLINK-5259,PAYLOAD,2022-11-18 20:00:01,15.73257189,0.0003132,53.2164,36.0265,11.4714,14.865,-0.00049476,-0.00069677,0.0,0 STARLINK-5259,1 54209U 22141BE  22322.83334491 -.00069677  00000-0 -49476-3 0  9996,2 54209  53.2164  36.0265 0003132  11.4714  14.8650 15.73257189  3692,6727.732,91.53,351.704,347.49,0.0
54209.0,STARLINK-5259,PAYLOAD,2022-11-18 22:00:00,15.73235256,0.0003081,53.2167,35.6134,11.8603,126.7265,-0.00029147,-0.00041401,0.0,0 STARLINK-5259,1 54209U 22141BE  22322.91667824 -.00041401  00000-0 -29147-3 0  9992,2 54209  53.2167  35.6134 0003081  11.8603 126.7265 15.73235256  1301,6727.795,91.531,351.732,347.587,0.0
54209.0,STARLINK-5259,PAYLOAD,2022-11-19 06:00:00,15.73210068,0.0003094,53.2171,33.9633,16.4599,211.0837,0.00010075,0.00013548,0.0,0 STARLINK-5259,1 54209U 22141BE  22323.25001157  .00013548  00000-0  10075-3 0  9990,2 54209  53.2171  33.9633 0003094  16.4599 211.0837 15.73210068  3758,6727.866,91.533,351.81300000000016,347.65,0.0
54209.0,STARLINK-5259,PAYLOAD,2022-11-19 14:00:01,15.73205989,0.0003434,53.217,32.3158,16.5751,299.9086,0.00037973,0.00053034,0.0,0 STARLINK-5259,1 54209U 22141BE  22323.58334491  .00053034  00000-0  37973-3 0  9996,2 54209  53.2170  32.3158 0003434  16.5751 299.9086 15.73205989  1307,6727.878000000002,91.533,352.05300000000005,347.43300000000005,0.0
54209.0,STARLINK-5259,PAYLOAD,2022-11-19 20:00:01,15.73054337,0.0003486,53.2171,31.0757,18.6631,274.5582,0.0013339,0.00189716,0.0,0 STARLINK-5259,1 54209U 22141BE  22323.83334491  .00189716  00000-0  13339-2 0  9990,2 54209  53.2171  31.0757 0003486  18.6631 274.5582 15.73054337  3846,6728.31,91.542,352.521,347.83,0.0
54209.0,STARLINK-5259,PAYLOAD,2022-11-19 22:00:00,15.73070423,0.0003397,53.2175,30.6626,19.3894,26.0334,0.0014444,0.00206024,0.0,0 STARLINK-5259,1 54209U 22141BE  22323.91667824  .00206024  00000-0  14444-2 0  9998,2 54209  53.2175  30.6626 0003397  19.3894  26.0334 15.73070423  1308,6728.265,91.541,352.415,347.844,0.0
54209.0,STARLINK-5259,PAYLOAD,2022-11-20 14:00:01,15.73172191,0.0003437,53.2169,27.3677,10.4361,212.8741,0.00060038,0.00084407,0.0,0 STARLINK-5259,1 54209U 22141BE  22324.58334491  .00084407  00000-0  60038-3 0  9993,2 54209  53.2169  27.3677 0003437  10.4361 212.8741 15.73172191  3962,6727.974,91.535,352.152,347.527,0.0
54209.0,STARLINK-5259,PAYLOAD,2022-11-20 22:00:00,15.73236856,0.0003256999999999,53.2171,25.7164,10.1629,302.0803,-0.00043141,-0.00060847,0.0,0 STARLINK-5259,1 54209U 22141BE  22324.91667824 -.00060847  00000-0 -43141-3 0  9999,2 54209  53.2171  25.7164 0003257  10.1629 302.0803 15.73236856  4020,6727.79,91.531,351.846,347.464,0.0
54209.0,STARLINK-5259,PAYLOAD,2022-11-21 14:00:01,15.73151907,0.0003645,53.2172,22.4192,14.4027,115.7156,0.00073919,0.00104226,0.0,0 STARLINK-5259,1 54209U 22141BE  22325.58334491  .00104226  00000-0  73919-3 0  9998,2 54209  53.2172  22.4192 0003645  14.4027 115.7156 15.73151907  4120,6728.031999999997,91.536,352.35,347.445,0.0
54209.0,STARLINK-5259,PAYLOAD,2022-11-21 20:00:01,15.73245075,0.0003552,53.2169,21.1808,14.2588,92.5289,-0.00038584,-0.00054549,0.0,0 STARLINK-5259,1 54209U 22141BE  22325.83334491 -.00054549  00000-0 -38584-3 0  9999,2 54209  53.2169  21.1808 0003552  14.2588  92.5289 15.73245075  4166,6727.767,91.531,352.021,347.242,0.0
54209.0,STARLINK-5259,PAYLOAD,2022-11-21 22:00:00,15.73236579,0.0003463,53.2171,20.768,14.1031,204.9275,-0.00033466,-0.00047417,0.0,0 STARLINK-5259,1 54209U 22141BE  22325.91667824 -.00047417  00000-0 -33466-3 0  9997,2 54209  53.2171  20.7680 0003463  14.1031 204.9275 15.73236579  1301,6727.791,91.531,351.986,347.326,0.0
54209.0,STARLINK-5259,PAYLOAD,2022-11-22 06:00:02,15.73216822,0.0003424,53.217,19.1187,13.1072,294.9361,0.00017019,0.00023352,0.0,0 STARLINK-5259,1 54209U 22141BE  22326.25002315  .00023352  00000-0  17019-3 0  9999,2 54209  53.2170  19.1187 0003424  13.1072 294.9361 15.73216822  4234,6727.847,91.532,352.016,347.409,0.0
54209.0,STARLINK-5259,PAYLOAD,2022-11-22 14:00:01,15.73200014,0.0003631,53.2167,17.471,10.7424,26.2507,3.7738e-05,4.677e-05,0.0,0 STARLINK-5259,1 54209U 22141BE  22326.58335648  .00004677  00000-0  37738-4 0  9993,2 54209  53.2167  17.4710 0003631  10.7424  26.2507 15.73200014  4286,6727.895,91.533,352.20300000000015,347.31699999999995,0.0
54209.0,STARLINK-5259,PAYLOAD,2022-11-22 22:00:00,15.7320021,0.000346,53.2169,15.8196,8.0341,117.826,-0.00027577,-0.0003916,0.0,0 STARLINK-5259,1 54209U 22141BE  22326.91667824 -.00039160  00000-0 -27577-3 0  9990,2 54209  53.2169  15.8196 0003460   8.0341 117.8260 15.73200210  1307,6727.895,91.533,352.087,347.432,0.0
54209.0,STARLINK-5259,PAYLOAD,2022-11-23 14:00:01,15.73199063,0.0003787,53.2168,12.5225,7.5868,296.0964,-9.5587e-05,-0.00014022,0.0,0 STARLINK-5259,1 54209U 22141BE  22327.58334491 -.00014022  00000-0 -95587-4 0  9992,2 54209  53.2168  12.5225 0003787   7.5868 296.0964 15.73199063  4434,6727.898,91.533,352.311,347.215,0.0
